[{"OBJECT_NAME":"KUIPER-00241","OBJECT_ID":"2025-301S","EPOCH":"2026-03-09T06:38:31.196544","MEAN_MOTION":14.79876091,"ECCENTRICITY":6.519e-5,"INCLINATION":51.9025,"RA_OF_ASC_NODE":77.4378,"ARG_OF_PERICENTER":133.9067,"MEAN_ANOMALY":226.1949,"EPHEMERIS_TYPE":0,"CLASSIFICATION_TYPE":"U","NORAD_CAT_ID":67149,"ELEMENT_SET_NO":999,"REV_AT_EPOCH":1386,"BSTAR":0.00047617526,"MEAN_MOTION_DOT":3.406e-5,"MEAN_MOTION_DDOT":0},{"OBJECT_NAME":"CZ-6A DEB","OBJECT_ID":"2022-151ADC","EPOCH":"2026-03-09T01:20:22.662240","MEAN_MOTION":14.5468906,"ECCENTRICITY":0.01329228,"INCLINATION":98.5294,"RA_OF_ASC_NODE":103.0355,"ARG_OF_PERICENTER":266.5397,"MEAN_ANOMALY":92.0588,"EPHEMERIS_TYPE":0,"CLASSIFICATION_TYPE":"U","NORAD_CAT_ID":56284,"ELEMENT_SET_NO":999,"REV_AT_EPOCH":15533,"BSTAR":0.0015446655,"MEAN_MOTION_DOT":7.388e-5,"MEAN_MOTION_DDOT":0}]
